{
  "type": "FeatureCollection",
  "features": [
    {
      "type": "Feature",
      "properties": {
        "norad_id": 64751,
        "name": "PROGRESS-MS 31",
        "group": "stations",
        "lat": -51.05975678571569,
        "lon": -33.49752276116633,
        "alt_km": 420.2129892663006,
        "timestamp": "2025-12-27T19:21:57.578234+00:00",
        "meta_object_name": "PROGRESS-MS 31",
        "meta_object_id": "2025-146A",
        "meta_epoch": "2025-12-27T04:18:31.505184",
        "meta_mean_motion": 15.49864323,
        "meta_eccentricity": 0.00032283,
        "meta_inclination": 51.6319,
        "meta_ra_of_asc_node": 70.9638,
        "meta_arg_of_pericenter": 308.9173,
        "meta_mean_anomaly": 51.1527,
        "meta_ephemeris_type": 0,
        "meta_classification_type": "U",
        "meta_norad_cat_id": 64751,
        "meta_element_set_no": 999,
        "meta_rev_at_epoch": 675,
        "meta_bstar": 0.0002516974,
        "meta_mean_motion_dot": 0.00013867,
        "meta_mean_motion_ddot": 0,
        "tle_line1": "1 64751U 25146A   25361.17953131  .00013867  00000+0  25170-3 0  9990",
        "tle_line2": "2 64751  51.6319  70.9638 0003228 308.9173  51.1527 15.49864323  6753"
      },
      "geometry": {
        "type": "Point",
        "coordinates": [
          -33.49752276116633,
          -51.05975678571569
        ]
      }
    },
    {
      "type": "Feature",
      "properties": {
        "norad_id": 64786,
        "name": "TIANZHOU-9",
        "group": "stations",
        "lat": -35.26350645489151,
        "lon": 158.38999527112367,
        "alt_km": 389.99640748919865,
        "timestamp": "2025-12-27T19:21:57.578244+00:00",
        "meta_object_name": "TIANZHOU-9",
        "meta_object_id": "2025-149A",
        "meta_epoch": "2025-12-27T06:02:45.823200",
        "meta_mean_motion": 15.59750285,
        "meta_eccentricity": 0.0008745,
        "meta_inclination": 41.4675,
        "meta_ra_of_asc_node": 288.5662,
        "meta_arg_of_pericenter": 157.7703,
        "meta_mean_anomaly": 202.3516,
        "meta_ephemeris_type": 0,
        "meta_classification_type": "U",
        "meta_norad_cat_id": 64786,
        "meta_element_set_no": 999,
        "meta_rev_at_epoch": 25530,
        "meta_bstar": 0.00024488937,
        "meta_mean_motion_dot": 0.0001992,
        "meta_mean_motion_ddot": 0,
        "tle_line1": "1 64786U 25149A   25361.25191925  .00019920  00000+0  24489-3 0  9993",
        "tle_line2": "2 64786  41.4675 288.5662 0008745 157.7703 202.3516 15.59750285255302"
      },
      "geometry": {
        "type": "Point",
        "coordinates": [
          158.38999527112367,
          -35.26350645489151
        ]
      }
    },
    {
      "type": "Feature",
      "properties": {
        "norad_id": 65077,
        "name": "CREW DRAGON 11",
        "group": "stations",
        "lat": -51.05975697487417,
        "lon": -33.49752083488332,
        "alt_km": 420.21298923629365,
        "timestamp": "2025-12-27T19:21:57.578253+00:00",
        "meta_object_name": "CREW DRAGON 11",
        "meta_object_id": "2025-166A",
        "meta_epoch": "2025-12-27T04:18:31.505184",
        "meta_mean_motion": 15.49864323,
        "meta_eccentricity": 0.00032283,
        "meta_inclination": 51.6319,
        "meta_ra_of_asc_node": 70.9638,
        "meta_arg_of_pericenter": 308.9173,
        "meta_mean_anomaly": 51.1527,
        "meta_ephemeris_type": 0,
        "meta_classification_type": "U",
        "meta_norad_cat_id": 65077,
        "meta_element_set_no": 999,
        "meta_rev_at_epoch": 214,
        "meta_bstar": 0.0002516974,
        "meta_mean_motion_dot": 0.00013867,
        "meta_mean_motion_ddot": 0,
        "tle_line1": "1 65077U 25166A   25361.17953131  .00013867  00000+0  25170-3 0  9994",
        "tle_line2": "2 65077  51.6319  70.9638 0003228 308.9173  51.1527 15.49864323  2144"
      },
      "geometry": {
        "type": "Point",
        "coordinates": [
          -33.49752083488332,
          -51.05975697487417
        ]
      }
    },
    {
      "type": "Feature",
      "properties": {
        "norad_id": 65304,
        "name": "DRAGON CRS-33",
        "group": "stations",
        "lat": -51.059757084387215,
        "lon": -33.497519719664155,
        "alt_km": 420.2129892189241,
        "timestamp": "2025-12-27T19:21:57.578264+00:00",
        "meta_object_name": "DRAGON CRS-33",
        "meta_object_id": "2025-186A",
        "meta_epoch": "2025-12-27T04:18:31.505184",
        "meta_mean_motion": 15.49864323,
        "meta_eccentricity": 0.00032283,
        "meta_inclination": 51.6319,
        "meta_ra_of_asc_node": 70.9638,
        "meta_arg_of_pericenter": 308.9173,
        "meta_mean_anomaly": 51.1527,
        "meta_ephemeris_type": 0,
        "meta_classification_type": "U",
        "meta_norad_cat_id": 65304,
        "meta_element_set_no": 999,
        "meta_rev_at_epoch": 11,
        "meta_bstar": 0.0002516974,
        "meta_mean_motion_dot": 0.00013867,
        "meta_mean_motion_ddot": 0,
        "tle_line1": "1 65304U 25186A   25361.17953131  .00013867  00000+0  25170-3 0  9999",
        "tle_line2": "2 65304  51.6319  70.9638 0003228 308.9173  51.1527 15.49864323   112"
      },
      "geometry": {
        "type": "Point",
        "coordinates": [
          -33.497519719664155,
          -51.059757084387215
        ]
      }
    },
    {
      "type": "Feature",
      "properties": {
        "norad_id": 65586,
        "name": "PROGRESS-MS 32",
        "group": "stations",
        "lat": -51.05975717398859,
        "lon": -33.497518807214306,
        "alt_km": 420.21298920470963,
        "timestamp": "2025-12-27T19:21:57.578273+00:00",
        "meta_object_name": "PROGRESS-MS 32",
        "meta_object_id": "2025-204A",
        "meta_epoch": "2025-12-27T04:18:31.505184",
        "meta_mean_motion": 15.49864323,
        "meta_eccentricity": 0.00032283,
        "meta_inclination": 51.6319,
        "meta_ra_of_asc_node": 70.9638,
        "meta_arg_of_pericenter": 308.9173,
        "meta_mean_anomaly": 51.1527,
        "meta_ephemeris_type": 0,
        "meta_classification_type": "U",
        "meta_norad_cat_id": 65586,
        "meta_element_set_no": 999,
        "meta_rev_at_epoch": 27,
        "meta_bstar": 0.0002516974,
        "meta_mean_motion_dot": 0.00013867,
        "meta_mean_motion_ddot": 0,
        "tle_line1": "1 65586U 25204A   25361.17953131  .00013867  00000+0  25170-3 0  9992",
        "tle_line2": "2 65586  51.6319  70.9638 0003228 308.9173  51.1527 15.49864323   271"
      },
      "geometry": {
        "type": "Point",
        "coordinates": [
          -33.497518807214306,
          -51.05975717398859
        ]
      }
    },
    {
      "type": "Feature",
      "properties": {
        "norad_id": 65616,
        "name": "CYGNUS NG-23",
        "group": "stations",
        "lat": -51.059757283501355,
        "lon": -33.4975176919978,
        "alt_km": 420.2129891873392,
        "timestamp": "2025-12-27T19:21:57.578284+00:00",
        "meta_object_name": "CYGNUS NG-23",
        "meta_object_id": "2025-208A",
        "meta_epoch": "2025-12-27T04:18:31.505184",
        "meta_mean_motion": 15.49864323,
        "meta_eccentricity": 0.00032283,
        "meta_inclination": 51.6319,
        "meta_ra_of_asc_node": 70.9638,
        "meta_arg_of_pericenter": 308.9173,
        "meta_mean_anomaly": 51.1527,
        "meta_ephemeris_type": 0,
        "meta_classification_type": "U",
        "meta_norad_cat_id": 65616,
        "meta_element_set_no": 999,
        "meta_rev_at_epoch": 22,
        "meta_bstar": 0.0002516974,
        "meta_mean_motion_dot": 0.00013867,
        "meta_mean_motion_ddot": 0,
        "tle_line1": "1 65616U 25208A   25361.17953131  .00013867  00000+0  25170-3 0  9990",
        "tle_line2": "2 65616  51.6319  70.9638 0003228 308.9173  51.1527 15.49864323   220"
      },
      "geometry": {
        "type": "Point",
        "coordinates": [
          -33.4975176919978,
          -51.059757283501355
        ]
      }
    },
    {
      "type": "Feature",
      "properties": {
        "norad_id": 65729,
        "name": "DRAGONFLY",
        "group": "stations",
        "lat": 23.848329689105213,
        "lon": -142.19565992277165,
        "alt_km": 339.38579351952467,
        "timestamp": "2025-12-27T19:21:57.578294+00:00",
        "meta_object_name": "DRAGONFLY",
        "meta_object_id": "1998-067XH",
        "meta_epoch": "2025-12-27T09:36:53.510976",
        "meta_mean_motion": 15.772546,
        "meta_eccentricity": 0.0008326,
        "meta_inclination": 51.6252,
        "meta_ra_of_asc_node": 60.4091,
        "meta_arg_of_pericenter": 3.6197,
        "meta_mean_anomaly": 356.4863,
        "meta_ephemeris_type": 0,
        "meta_classification_type": "U",
        "meta_norad_cat_id": 65729,
        "meta_element_set_no": 999,
        "meta_rev_at_epoch": 1547,
        "meta_bstar": 0.0013487,
        "meta_mean_motion_dot": 0.00232349,
        "meta_mean_motion_ddot": 0,
        "tle_line1": "1 65729U 98067XH  25361.40061934  .00232349  00000+0  13487-2 0  9990",
        "tle_line2": "2 65729  51.6252  60.4091 0008326   3.6197 356.4863 15.77254600 15476"
      },
      "geometry": {
        "type": "Point",
        "coordinates": [
          -142.19565992277165,
          23.848329689105213
        ]
      }
    }
  ]
}